0 METEOR 2-8 DEB
1 36334U 82025U   13281.85149201  .00001009  00000-0  62808-3 0  3026
2 36334 082.5167 101.2341 0019739 044.6327 315.7005 14.03991988538512
0 METEOR 2-8 DEB
1 36334U 82025U   13282.20781174  .00001039  00000-0  64646-3 0  3033
2 36334 082.5229 100.9550 0021252 054.9180 305.4162 14.03993589538567
0 METEOR 2-8 DEB
1 36334U 82025U   13283.84691500  .00001109  00000-0  69133-3 0  3042
2 36334 082.5160 099.5866 0019548 037.8250 322.4331 14.03999420538799
0 METEOR 2-8 DEB
1 36334U 82025U   13286.19867314  .00001171  00000-0  73006-3 0  3055
2 36334 082.5139 097.6410 0019398 030.9273 329.3101 14.04006753539129
0 METEOR 2-8 DEB
1 36334U 82025U   13287.19638765  .00001212  00000-0  75620-3 0  3063
2 36334 082.5227 096.8264 0017106 042.7040 317.5976 14.04010566539264
0 METEOR 2-8 DEB
1 36334U 82025U   13287.76649966  .00001299  00000-0  81088-3 0  3072
2 36334 082.5162 096.3555 0018931 028.4250 331.8050 14.04014104539344
0 METEOR 2-8 DEB
1 36334U 82025U   13289.76191681  .00001402  00000-0  87645-3 0  3082
2 36334 082.5215 094.7190 0017992 026.8383 333.4226 14.04022121539627
0 METEOR 2-8 DEB
1 36334U 82025U   13290.75959626  .00002452  00000-0  15492-2 0  3103
2 36334 082.5195 093.8998 0018277 020.2028 340.0334 14.04035265539763
0 METEOR 2-8 DEB
1 36334U 82025U   13290.75961156  .00001459  00000-0  91207-3 0  3097
2 36334 082.5226 093.9016 0017646 022.1198 338.1224 14.04026913539764
0 METEOR 2-8 DEB
1 36334U 82025U   13291.18718837  .00001500  00000-0  93800-3 0  3101
2 36334 082.5219 093.5457 0016974 022.6788 337.5548 14.04029644539827
0 METEOR 2-8 DEB
1 36334U 82025U   13292.75498665  .00001610  00000-0  10079-2 0  3118
2 36334 082.5286 092.2684 0015496 025.0985 335.1456 14.04037809540043
0 METEOR 2-8 DEB
1 36334U 82025U   13295.17794048  .00001681  00000-0  10520-2 0  3121
2 36334 082.5249 090.2632 0016984 014.5559 345.6276 14.04047505540383
